EXPRESS AMU-3           
1 50002U 21123B   25258.72793019 -.00000339  00000+0  00000+0 0  9990
2 50002   0.0251 237.9843 0000322 219.9923 262.0281  1.00271137  4282
TIANLIAN 2-02           
1 50005U 21124A   25259.61761882 -.00000034  00000+0  00000+0 0  9998
2 50005   0.0913 101.5600 0003913 129.2487 158.2828  1.00270996 13874
TURKSAT 5B              
1 50212U 21126A   25259.31989353  .00000127  00000+0  00000+0 0  9994
2 50212   0.0739 334.3637 0002127 324.3586 213.9698  1.00271081 13555
INMARSAT 6-F1           
1 50319U 21128A   25257.99136337  .00000000  00000+0  00000+0 0  9992
2 50319   0.0222 145.6091 0000385 114.8354 174.4038  1.00270740 13499
SHIYAN-12 01 (SY-12 01) 
1 50321U 21129A   25254.67163559 -.00000312  00000+0  00000+0 0  9991
2 50321   2.9506  83.8353 0001949 168.9801  76.1457  1.00465658 13707
SHIYAN-12 02 (SY-12 02) 
1 50322U 21129B   25254.67220367 -.00000309  00000+0  00000+0 0  9999
2 50322   2.9497  83.8267 0002718 167.7832 120.5846  1.00123398 13705
TJS-9                   
1 50574U 21135A   25259.54165450 -.00000318  00000+0  00000+0 0  9997
2 50574   0.0408 288.9244 0000700 310.8777  88.1348  1.00274840 13688
USA 324                 
1 51280U 22006A   25254.29321448 -.00000263  00000+0  00000+0 0  9997
2 51280   0.1046  75.0924 0000716 181.5789 152.6001  1.00549330 13339
USA 325                 
1 51281U 22006B   25254.10232617 -.00000071  00000+0  00000+0 0  9994
2 51281   0.2196  89.5647 0001061 147.0276 220.9101  1.00391799 13335
GOES 18                 
1 51850U 22021A   25259.57822628  .00000077  00000+0  00000+0 0  9991
2 51850   0.0368  34.9122 0000708 219.1679 172.8512  1.00270583  3846
ZHONGXING-6D            
1 52255U 22038A   25259.66446725  .00000000  00000+0  00000+0 0  9995
2 52255   0.0345 199.5293 0002413  24.8352 135.6161  1.00266999 12676
NILESAT 301             
1 52817U 22061A   25258.79725692 -.00000075  00000+0  00000+0 0  9994
2 52817   0.0524 359.6399 0001140 170.7602 104.5978  1.00271814 11986
CMS-02 (GSAT 24)        
1 52903U 22067A   25259.62492329 -.00000184  00000+0  00000+0 0  9998
2 52903   0.0279 241.5794 0003294  19.5329  42.6775  1.00272175 11860
MEASAT 3D               
1 52904U 22067B   25257.96038775 -.00000256  00000+0  00000+0 0  9995
2 52904   0.0551 312.0065 0002040 287.1538 192.2649  1.00270176 11885
SES-22                  
1 52933U 22071A   25259.57822628  .00000000  00000+0  00000+0 0  9995
2 52933   0.0201 155.5217 0000982  45.9223 223.5035  1.00273235  4778
WFOV (USA 332)          
1 52940U 22073A   25259.60635891 -.00000381  00000+0  00000+0 0  9996
2 52940   3.0032  82.0718 0001431  46.8385 204.4600  1.00272988 11622
TIANLIAN 2-03           
1 53100U 22078A   25258.98409101  .00000054  00000+0  00000+0 0  9999
2 53100   0.1066 332.7519 0001918 246.4403 140.7943  1.00272733 11809
SBIRS GEO-6 (USA 336)   
1 53355U 22092A   25259.39722453 -.00000310  00000+0  00000+0 0  9997
2 53355   3.7486 313.7648 0001787 237.3052  86.5116  1.00271158 11484
EUTELSAT KONNECT VHTS   
1 53765U 22110A   25259.22739965 -.00000002  00000+0  00000+0 0  9999
2 53765   0.0543 103.0352 0002505  66.6863 270.2575  1.00270778  4072
ZHONGXING-1E            
1 53813U 22112A   25259.59985208 -.00000168  00000+0  00000+0 0  9991
2 53813   0.0304 300.1034 0003421 313.7169  39.2766  1.00269288 11102
SES-20                  
1 53960U 22123A   25258.56412252 -.00000118  00000+0  00000+0 0  9991
2 53960   0.0161 140.7146 0001429 332.7899 341.2502  1.00270246 10777
SES-21                  
1 53961U 22123B   25258.98679777  .00000051  00000+0  00000+0 0  9990
2 53961   0.0317  64.1684 0000895 104.0576  51.2082  1.00270794  4463
GALAXY 33 (G-33)        
1 54026U 22128A   25259.57822628  .00000059  00000+0  00000+0 0  9997
2 54026   0.0199 252.8492 0001829 293.1343 244.9490  1.00273705 10991
GALAXY 34 (G-34)        
1 54027U 22128B   25259.55816523  .00000000  00000+0  00000+0 0  9999
2 54027   0.0195 184.5845 0001431 351.3609 251.8143  1.00270645 11164
ANGOSAT 2               
1 54033U 22131A   25259.58823870  .00000116  00000+0  00000+0 0  9994
2 54033   0.0090 158.9532 0001655 121.2528 310.3306  1.00271496 10723
EUTELSAT HOTBIRD 13F    
1 54048U 22134A   25258.87265726  .00000070  00000+0  00000+0 0  9993
2 54048   0.0625 287.6546 0001895  72.7045 321.8833  1.00273989 10628
LDPE-2                  
1 54219U 22144A   25259.43171801 -.00000280  00000+0  00000+0 0  9991
2 54219   4.9723  65.0771 0007446 163.5776 235.8199  1.00540246  9075
EUTELSAT HOTBIRD 13G    
1 54225U 22146A   25258.80124360  .00000070  00000+0  00000+0 0  9994
2 54225   0.0540 235.8355 0002150 306.1596 114.4835  1.00275678  4712
ZHONGXING-19            
1 54230U 22148A   25258.90238406 -.00000098  00000+0  00000+0 0  9991
2 54230   0.0159 156.3438 0006496  68.3012 258.6711  1.00272024 10634
GALAXY 31 (G-31)        
1 54243U 22153A   25259.55972524 -.00000006  00000+0  00000+0 0  9998
2 54243   0.0197 217.8057 0001585 352.5321 225.9159  1.00271740  4387
GALAXY 32 (G-32)        
1 54244U 22153B   25259.56570527  .00000000  00000+0  00000+0 0  9990
2 54244   0.0184 150.6756 0000362 127.0433 190.6942  1.00268490 10401
EUTELSAT 10B            
1 54259U 22157A   25259.58572536  .00000048  00000+0  00000+0 0  9996
2 54259   0.0579 101.4709 0001492   4.4572 110.6721  1.00269818 10271
GALAXY 35 (G-35)        
1 54741U 22170A   25259.06566477 -.00000181  00000+0  00000+0 0  9996
2 54741   0.0158 130.8343 0001952  50.1258 104.8504  1.00271860 10140
GALAXY 36 (G-36)        
1 54742U 22170B   25259.56605193 -.00000204  00000+0  00000+0 0  9997
2 54742   0.0093 158.3348 0001687 347.8829 324.3175  1.00270605 10031
METEOSAT-12 (MTG-I1)    
1 54743U 22170C   25259.29820663 -.00000025  00000+0  00000+0 0  9990
2 54743   0.7014  33.0897 0001543 135.9339 293.5326  1.00274989 10239
SHIJIAN-23 (SJ-23)      
1 55131U 23002A   25254.73801546  .00000147  00000+0  00000+0 0  9994
2 55131   2.9964  81.8770 0002239 133.2312  83.5112  1.00072467  9713
APSTAR-6E               
1 55239U 23005A   25258.96799102 -.00000336  00000+0  00000+0 0  9990
2 55239   0.0397 241.8014 0004294 329.3392 266.5064  1.00269995 15955
USA 342                 
1 55263U 23008A   25256.59096154  .00000000  00000+0  00000+0 0  9991
2 55263   0.0171 158.7591 0000418  90.2058 340.5120  1.00270067  9743
LDPE-3A                 
1 55264U 23008B   25259.29959330 -.00000023  00000+0  00000+0 0  9992
2 55264   1.5691  84.6281 0002150 118.0505 267.6467  0.99973421  9071
ELEKTRO-L 4             
1 55506U 23016A   25259.55125142 -.00000078  00000+0  00000+0 0  9995
2 55506   0.0580 348.4129 0002187 229.5044 142.0666  1.00270922  9581
AMAZONAS NEXUS          
1 55508U 23017A   25259.50027166 -.00000302  00000+0  00000+0 0  9990
2 55508   0.0455  33.4940 0002490 105.7090 335.5864  1.00269637  4304
ZHONGXING-26            
1 55686U 23023A   25259.03758465 -.00000372  00000+0  00000+0 0  9992
2 55686   0.0615  75.7684 0001528  59.8498 358.2410  1.00268125  9489
LUCH-5X (OLYMP-K 2)     
1 55841U 23031A   25254.67283355  .00000029  00000+0  00000+0 0  9998
2 55841   0.0129 129.9563 0001416 189.4648 335.7177  1.00272490  9146
GAOFEN-13 02            
1 55912U 23036A   25258.38447588 -.00000234  00000+0  00000+0 0  9993
2 55912   1.1854 328.9270 0002527 346.5558 325.7286  1.00274162  9337
SES-18                  
1 55970U 23038A   25259.56327859 -.00000120  00000+0  00000+0 0  9992
2 55970   0.0355 265.5935 0002015 320.7072 229.1236  1.00271271  9358
SES-19                  
1 55971U 23038B   25259.57822628  .00000068  00000+0  00000+0 0  9998
2 55971   0.0397 292.2166 0001681 259.4213 237.3877  1.00273011  9324
INTELSAT 40E (IS-40E)   
1 56174U 23052A   25259.56570527 -.00000193  00000+0  00000+0 0  9997
2 56174   0.0105 169.5388 0002623  21.4776 277.3906  1.00270581  9086
VIASAT-3                
1 56370U 23060A   25258.85237718  .00000000  00000+0  00000+0 0  9993
2 56370   0.0198 188.0516 0000087 327.5757  57.3304  1.00270229  8688
ARCTURUS                
1 56371U 23060B   25259.29387328 -.00000187  00000+0  00000+0 0  9993
2 56371   2.0647  83.3974 0000552 104.4247 251.3528  1.00270855  8700
GS-1                    
1 56372U 23060C   25259.05322508 -.00000010  00000+0  00000+0 0  9992
2 56372   2.0140  83.0741 0002637 258.0928  97.6306  1.00294960  4788
BEIDOU-3 G4             
1 56564U 23066A   25259.58447578 -.00000131  00000+0  00000+0 0  9998
2 56564   1.0139 296.1916 0005815 214.2464 215.8124  1.00271578  8651
ARABSAT-7B (BADR-8)     
1 56757U 23075A   25257.83941579  .00000130  00000+0  00000+0 0  9996
2 56757   0.0776  24.8399 0001476 342.4075 314.9992  1.00271175  8357
NVS-01 (IRNSS-1J)       
1 56759U 23076A   25259.61347839 -.00000359  00000+0  00000+0 0  9990
2 56759   2.8391 254.4492 0007008 348.6372 103.0813  1.00274620  8371
NUSANTARA TIGA (SATRIA) 
1 57045U 23086A   25259.32715341 -.00000254  00000+0  00000+0 0  9999
2 57045   0.0070  32.3627 0002549 256.1694 330.7635  1.00268403  7015
H2SAT (HEINRICH HERTZ)  
1 57213U 23093A   25258.02616802  .00000008  00000+0  00000+0 0  9998
2 57213   0.0186 108.7286 0001036 142.4152 175.6159  1.00277655  8157
SYRACUSE 4B             
1 57214U 23093B   25258.86875725  .00000000  00000+0  00000+0 0  9994
2 57214   0.0238 158.7274 0000423  99.8125  42.7023  1.00273315  4218
JUPITER 3 (ECHOSTAR 24) 
1 57479U 23108A   25257.28248659 -.00000162  00000+0  00000+0 0  9999
2 57479   0.0177 125.6008 0001343  46.3999 188.0068  1.00272058  7881
GALAXY 37 (G-37)        
1 57493U 23112A   25259.55851190  .00000000  00000+0  00000+0 0  9992
2 57493   0.0219 140.5186 0002144  55.1933 234.1020  1.00270677  7799
LUDI TANCE-4 01A        
1 57624U 23120A   25259.31597338 -.00000209  00000+0  00000+0 0  9994
2 57624  15.3064 200.7414 0003952  48.0495 309.9483  1.00266217  7796
